HST                     
1 20580U 90037B   20331.42373212  .00000871  00000-0  41951-4 0  9997
2 20580  28.4709 328.3172 0002820  40.9341  79.4493 15.09487063480423
POLAR                   
1 23802U 96013A   20326.80557188  .00000084  00000-0  00000+0 0  9990
2 23802  78.7079 247.8428 6177708 278.0853  20.3997  1.29846421118433
SWAS                    
1 25560U 98071A   20331.96102815  .00000366  00000-0  42844-4 0  9995
2 25560  69.8986 334.7543 0004454  99.7968 260.3691 14.93949232193297
CXO                     
1 25867U 99040B   20333.12278526  .00000672  00000-0  00000-0 0  9999
2 25867  59.5266 262.4102 7999974 226.6124   0.0905  0.37801675  9670
XMM-NEWTON              
1 25989U 99066A   20333.08836898 -.00000310  00000-0  00000+0 0  9998
2 25989  71.0370 316.7747 6882678  92.0266 359.8762  0.50134981 27200
TERRA                   
1 25994U 99068A   20332.47729259  .00000105  00000-0  33354-4 0  9994
2 25994  98.1995  44.3710 0001147  91.5938 325.4373 14.57118911114055
CLUSTER II-FM7 (SAMBA)  
1 26410U 00041A   20334.45127404  .00000650  00000-0  00000+0 0  9997
2 26410 132.2424 342.9171 4599328 187.3827   0.4336  0.44233342 23079
CLUSTER II-FM6 (SALSA)  
1 26411U 00041B   20334.52068336  .00000692  00000-0  00000+0 0  9990
2 26411 132.5131 344.3941 5983572 192.7576   0.4399  0.44224138 22384
CLUSTER II-FM5 (RUMBA)  
1 26463U 00045A   20334.51763666  .00000733  00000-0  00000+0 0  9994
2 26463 136.1566 344.1917 5569555 192.7050   0.3964  0.44223608 23651
CLUSTER II-FM8 (TANGO)  
1 26464U 00045B   20334.45074939  .00000650  00000-0  00000+0 0  9994
2 26464 132.2458 342.9098 4600072 187.3841   0.4152  0.44220484 58996
ODIN                    
1 26702U 01007A   20332.07623903  .00001223  00000-0  83052-4 0  9995
2 26702  97.5478 346.2736 0012535  73.7649 286.4957 15.08173893 81333
TIMED                   
1 26998U 01055B   20332.14468780  .00000227  00000-0  28612-4 0  9997
2 26998  74.0718 329.3160 0001981 303.1552  56.9438 14.88238130 28749
RHESSI                  
1 27370U 02004A   20332.17194242  .00005649  00000-0  17393-3 0  9995
2 27370  38.0326 263.6451 0013098 229.8228 130.1397 15.33537438 39327
INTEGRAL                
1 27540U 02048A   20331.74291327  .00000474  00000-0  00000+0 0  9990
2 27540  58.4946 100.6199 8991807 295.9488   2.0957  0.37574995 19001
CORIOLIS                
1 27640U 03001A   20332.59136441  .00000031  00000-0  35835-4 0  9998
2 27640  98.7253 339.5344 0013189 289.4052 220.0097 14.19053463926551
SORCE                   
1 27651U 03004A   20332.47467183  .00000296  00000-0  44832-4 0  9990
2 27651  39.9941 140.8696 0020999  84.9321 275.3864 14.89185525968543
MOST                    
1 27843U 03031D   20332.10958551  .00000011  00000-0  25361-4 0  9998
2 27843  98.7102 337.0424 0009800 350.7829   9.3167 14.20622638902693
SCISAT 1                
1 27858U 03036A   20331.85638345  .00000100  00000-0  19126-4 0  9997
2 27858  73.9336 224.4491 0007188  25.3597 334.7929 14.77313083931630
SWIFT                   
1 28485U 04047A   20332.28655840  .00001559  00000-0  76343-4 0  9997
2 28485  20.5579 324.8725 0010837 317.6935  42.2663 15.04757988878056
FORMOSAT-3 FM6          
1 29047U 06011A   20331.91087550  .00000124  00000-0  64805-4 0  9998
2 29047  71.9766 138.4005 0049186 143.2808 217.1716 14.28766893764539
FORMOSAT-3 FM1          
1 29048U 06011B   20332.49347606  .00000133  00000-0  68497-4 0  9995
2 29048  71.9681  47.9302 0041536  99.2167 261.3671 14.28733497767098
FORMOSAT-3 FM5          
1 29049U 06011C   20332.13547955  .00000155  00000-0  77257-4 0  9994
2 29049  72.0208 221.2329 0033449 126.9157 233.5053 14.28809858762830
FORMOSAT-3 FM3          
1 29050U 06011D   20331.78127982  .00000244  00000-0  61494-4 0  9995
2 29050  72.0160 351.4550 0048763  27.2351 333.1342 14.58976802780009
FORMOSAT-3 FM4          
1 29051U 06011E   20332.13165828  .00000107  00000-0  57434-4 0  9994
2 29051  72.0037 122.9853 0068382   2.0392 358.1010 14.28848022765422
FORMOSAT-3 FM2          
1 29052U 06011F   20331.90955330  .00000156  00000-0  77114-4 0  9995
2 29052  72.0339 198.1270 0038299  84.0020 276.5480 14.28952862762900
CLOUDSAT                
1 29107U 06016A   20332.42072205  .00000150  00000-0  39225-4 0  9995
2 29107  98.2518 279.2754 0000680 110.7030 249.4244 14.62275736776312
CALIPSO                 
1 29108U 06016B   20331.86571009  .00000273  00000-0  63283-4 0  9996
2 29108  98.2499 278.4877 0001308  77.6075 282.5273 14.62467996776058
HINODE (SOLAR-B)        
1 29479U 06041A   20332.44648672  .00000131  00000-0  33478-4 0  9997
2 29479  98.1561 342.9467 0016424 212.2638 147.7562 14.65102671757766
SJ-6C                   
1 29505U 06046A   20332.37784320  .00000138  00000-0  17898-4 0  9990
2 29505  97.8121 345.5028 0003865 196.6821 163.4291 14.94967146767954
SJ-6D                   
1 29506U 06046B   20332.47482214  .00000899  00000-0  90775-4 0  9998
2 29506  97.8320 345.7723 0000898 351.4216   8.6986 14.93554562767507
AGILE                   
1 31135U 07013A   20331.46847642  .00004306  00000-0  95986-4 0  9998
2 31135   2.4690   6.8103 0011871 191.1977 168.7813 15.32769115756942
AIM                     
1 31304U 07015A   20332.45083301  .00002358  00000-0  13422-3 0  9991
2 31304  97.8856 221.1326 0005671 146.2524 213.9068 15.13887489745342
FGRST (GLAST)           
1 33053U 08029A   20331.99459289  .00000721  00000-0  24510-4 0  9993
2 33053  25.5831  73.4255 0012661  88.9570 271.2415 15.11408324687955
WISE                    
1 36119U 09071A   20331.83968982  .00001848  00000-0  65412-4 0  9992
2 36119  97.3104   5.7944 0003373 137.1873 222.9631 15.30390928608639
SDO                     
1 36395U 10005A   20331.43375545 -.00000029  00000-0  00000+0 0  9998
2 36395  30.6020 118.5811 0000155 138.1364 223.6588  1.00272406 39683
CRYOSAT 2               
1 36508U 10013A   20332.45734069 -.00000004  00000-0 -17375-5 0  9999
2 36508  92.0156 147.1705 0007024  35.5057 324.6616 14.51904196563901
X-SAT                   
1 37389U 11015C   20332.41761908 -.00000039  00000-0  11279-5 0  9992
2 37389  98.4143  21.1128 0014268 168.9505 191.1993 14.24385578499485
GCOM-W1 (SHIZUKU)       
1 38337U 12025A   20332.43634858  .00000117  00000-0  35974-4 0  9996
2 38337  98.2078 270.0335 0001874 129.7413 340.5779 14.57105819453735
NUSTAR                  
1 38358U 12031A   20332.08633542  .00001265  00000-0  58540-4 0  9995
2 38358   6.0252 167.5904 0011074  73.9639 286.1709 14.88389899460275
NEOSSAT                 
1 39089U 13009D   20332.48829691  .00000022  00000-0  22854-4 0  9998
2 39089  98.4524 170.9803 0011638 158.0027 202.1660 14.34533401405939
IRIS                    
1 39197U 13033A   20332.07361178  .00000258  00000-0  42029-4 0  9998
2 39197  97.9596 152.4269 0028850  65.2336 295.1872 14.78779591400133
HISAKI (SPRINT-A)       
1 39253U 13049A   20332.45728168  .00000115  00000-0  67362-4 0  9995
2 39253  29.7198  85.9667 0136797 142.5944 218.4238 13.55231375357179
CASSIOPE                
1 39265U 13055A   20331.87266676  .00008954  00000-0  25190-3 0  9992
2 39265  80.9644 144.5215 0656138 187.7467 171.3191 14.30494931371012
STSAT-3                 
1 39422U 13066G   20332.37873443  .00000809  00000-0  89197-4 0  9990
2 39422  97.4977 356.8703 0023290  15.3088 344.8828 14.89886948381394
SWARM B                 
1 39451U 13067A   20332.47805267  .00000731  00000-0  30643-4 0  9999
2 39451  87.7571 230.9934 0002111  61.5348 298.6110 15.21846560389321
SWARM A                 
1 39452U 13067B   20332.18857641  .00003005  00000-0  62962-4 0  9997
2 39452  87.3624  71.4545 0003535  95.8482 264.3178 15.44943450394346
SWARM C                 
1 39453U 13067C   20332.18847747  .00003020  00000-0  63273-4 0  9997
2 39453  87.3476  72.0814 0003527  95.9227 264.2433 15.44943487394306
BRITE-CA1 (TORONTO)     
1 40020U 14033L   20332.46610600  .00000200  00000-0  42639-4 0  9990
2 40020  97.7300 151.3707 0085945 272.5381  86.5988 14.66679531344651
OCO 2                   
1 40059U 14035A   20332.13751345  .00000098  00000-0  31879-4 0  9999
2 40059  98.2072 270.4668 0001491  89.9523 270.1847 14.57105267340725
BRITE-PL2 (HEWELIUSZ)   
1 40119U 14049B   20331.82736374  .00000297  00000-0  41610-4 0  9996
2 40119  97.8941  62.4376 0016147 300.7627  59.1997 14.84561339339781
RESURS P2               
1 40360U 14087A   20332.50159015  .00001628  00000-0  52120-4 0  9990
2 40360  97.2402  58.1078 0008233 330.8038 146.2398 15.33801067331306
MMS 1                   
1 40482U 15011A   20331.40657407 -.00000024  00000-0  00000+0 0  9994
2 40482  31.4635 119.2090 8489551  26.0837 193.4864  0.28569983 11670
MMS 2                   
1 40483U 15011B   20331.40625000 -.00000024  00000-0  00000+0 0  9999
2 40483  31.4625 119.2193 8488861  26.0709 193.4692  0.28570016 11651
MMS 3                   
1 40484U 15011C   20331.40625000 -.00000024  00000-0  00000+0 0  9990
2 40484  31.4701 119.2137 8489954  26.0708 193.4879  0.28568601 11652
MMS 4                   
1 40485U 15011D   20331.40625000 -.00000024  00000-0  00000+0 0  9991
2 40485  31.4635 119.2196 8490206  26.0712 193.4590  0.28569986 11658
ASTROSAT                
1 40930U 15052A   20332.04181054  .00000855  00000-0  30971-4 0  9994
2 40930   5.9965 263.4086 0008124  46.1931 313.8867 14.76350117279267
DAMPE                   
1 41173U 15078A   20332.42510356  .00000342  00000-0  17026-4 0  9992
2 41173  97.3361 322.7707 0015068  42.2426 124.3380 15.23925180275219
PISAT                   
1 41784U 16059B   20332.42055863  .00000193  00000-0  45871-4 0  9990
2 41784  97.9983  24.3093 0032514 157.7031 202.5594 14.63559928222747
HXMT (HUIYAN)           
1 42758U 17034A   20332.45571866  .00000684  00000-0  56218-4 0  9997
2 42758  43.0185 221.7072 0011332 328.4338 208.7437 15.08969567190491
FLYING LAPTOP           
1 42831U 17042G   20332.39097824 -.00000009  00000-0  43459-5 0  9994
2 42831  97.4960 206.4605 0015568 100.6760 259.6206 14.91187921183570
PICSAT                  
1 43132U 18004X   20331.75456535  .00003755  00000-0  15367-3 0  9990
2 43132  97.4331  42.0000 0008998 193.1010 166.9995 15.24914620159786
ZHANGZHENG-1 (CSES)     
1 43194U 18015C   20332.41161955  .00002847  00000-0  13204-3 0  9992
2 43194  97.4557  95.5857 0011690 254.9062 190.3495 15.20827481156432
ICON                    
1 44628U 19068A   20331.92676766  .00000882  00000-0  65611-4 0  9997
2 44628  26.9910  53.4912 0018704 296.1894  63.6741 14.91788109 61705
SALSAT                  
1 46495U 20068K   20331.85582612 -.00000047  00000-0  11197-5 0  9996
2 46495  97.6734 264.8038 0018391  41.1378 319.1231 15.03254423  8897
